{
  "norad_id": 65761,
  "name": "STARLINK-34889",
  "history": [
    {
      "epoch": "2026-03-28T18:42:05.566176",
      "apogee_km": 475.88506196803064,
      "perigee_km": 474.3693940513631,
      "latitude_deg": 48.9584438697951,
      "longitude_deg": 110.90618464001454,
      "semi_major_axis_km": 6853.264228009696,
      "eccentricity": 0.00011058,
      "inclination_deg": 53.1577,
      "raan_deg": 244.405,
      "arg_perigee_deg": 82.1007,
      "mean_anomaly_deg": 278.012,
      "mean_motion_rev_day": 15.3022942
    }
  ]
}